CELESTIS-02             
1 25160U 98007D   23158.23675434  .00000099  00000+0  10147-3 0  9994
2 25160 107.9896 261.3412 0063880 224.2610 192.9911 14.21774477313505
CELESTIS-03             
1 26034U 99070C   23158.12648601  .00158633  00000+0  21683-2 0  9994
2 26034  98.2684 210.2915 0002105 257.0352 103.0666 15.56890724275313
